[{"OBJECT_NAME":"OBJECT H","OBJECT_ID":"2023-091H","EPOCH":"2026-03-09T22:34:46.487712","MEAN_MOTION":15.26380881,"ECCENTRICITY":0.00117854,"INCLINATION":97.5166,"RA_OF_ASC_NODE":131.4381,"ARG_OF_PERICENTER":104.1062,"MEAN_ANOMALY":256.1487,"EPHEMERIS_TYPE":0,"CLASSIFICATION_TYPE":"U","NORAD_CAT_ID":57173,"ELEMENT_SET_NO":999,"REV_AT_EPOCH":14915,"BSTAR":0.00056321781,"MEAN_MOTION_DOT":0.00014617,"MEAN_MOTION_DDOT":0},{"OBJECT_NAME":"STARLINK-35610","OBJECT_ID":"2025-259G","EPOCH":"2026-03-09T23:02:24.642816","MEAN_MOTION":15.27587366,"ECCENTRICITY":0.00023956,"INCLINATION":43.0029,"RA_OF_ASC_NODE":272.7341,"ARG_OF_PERICENTER":274.9006,"MEAN_ANOMALY":85.1572,"EPHEMERIS_TYPE":0,"CLASSIFICATION_TYPE":"U","NORAD_CAT_ID":66428,"ELEMENT_SET_NO":999,"REV_AT_EPOCH":1953,"BSTAR":0.0010125274,"MEAN_MOTION_DOT":0.00027712,"MEAN_MOTION_DDOT":0}]
